P/2016 S1 (PANSTARRS),e,94.7385,227.6734,273.1897,8.269520,0.0414461,0.71151176,111.9757,08/11.0/2024,2000,g 12.0,4.0
# From MPC106345
P/2016 WM48 (Lemmon),e,117.6347,59.9538,36.1799,8.173475,0.0421788,0.78381446,114.8629,08/11.0/2024,2000,g 15.0,4.0
# From MPEC 2021-P47
C/2016 X1 (Lemmon),e,26.4690,256.3026,224.5529,2001,0.0000110,0.99622265,0.0000,04/29.4926/2019,2000,g  6.0,4.0
# From MPEC 2022-OB6
C/2017 B3 (LINEAR),e,54.1918,2.2082,284.8121,5184,0.0000026,0.99924106,0.0000,01/30.7866/2019,2000,g  6.0,4.0
# From MPC103847
P/2017 B4 (PANSTARRS),e,20.0584,121.4578,11.0197,4.410520,0.1064068,0.36495152,359.9130,01/05.0/2017,2000,g 14.5,4.0
# From MPEC 2022-OB6
P/2017 D1 (Fuls),e,20.7722,82.1993,8.0152,4.824421,0.0930114,0.43770901,276.0241,08/11.0/2024,2000,g 14.0,4.0
# From MPEC 2022-OB6
P/2017 D4 (PANSTARRS),e,10.5595,264.9095,212.1227,7.542956,0.0475764,0.63021261,137.6617,08/11.0/2024,2000,g 13.0,4.0
# From MPEC 2024-C04
P/2017 G1 (PANSTARRS),e,5.1554,247.1402,225.2334,7.193597,0.0510840,0.65046309,155.1066,08/11.0/2024,2000,g 13.5,4.0
# From MPC108595
P/2017 G2 (PANSTARRS),e,47.9681,79.8976,105.2532,8.040161,0.0432322,0.64826620,113.2552,08/11.0/2024,2000,g 13.0,4.0
# From MPEC 2024-LE0
C/2017 K2 (PANSTARRS),h,12/19.4345/2022,87.6081,88.2244,236.2093,1.000140,1.798524,2000,1.5,4.0
# From MPEC 2021-N06
P/2017 K3 (Gasparovic),e,4.2731,354.2761,253.3054,5.585067,0.0746726,0.57900663,196.9613,08/11.0/2024,2000,g 14.5,4.0
# From MPEC 2021-P47
C/2017 K5 (PANSTARRS),h,03/26.4351/2020,82.2740,102.4436,172.0058,1.003633,7.682876,2000,5.0,4.0
# From MPEC 2022-OB6
C/2017 M4 (ATLAS),h,01/17.8420/2019,105.6230,66.0214,167.4896,1.000586,3.241926,2000,6.0,4.0
# From MPC114599
P/2017 P1 (PANSTARRS),e,7.6878,221.4627,122.8130,7.920933,0.0442119,0.30968366,99.1288,08/11.0/2024,2000,g 10.0,4.0
# From MPEC 2022-OB6
P/2017 S8 (PANSTARRS),e,29.8425,191.5272,254.8836,2.778788,0.2127752,0.39105570,147.9991,08/11.0/2024,2000,g 16.0,4.0
# From MPEC 2024-A43
C/2017 T2 (PANSTARRS),e,57.2931,64.4512,92.8111,1504,0.0000169,0.99893153,0.0000,05/05.4281/2020,2000,g  5.0,4.0
# From MPC115882
P/2017 TW13 (Lemmon),e,44.8722,322.1793,119.9556,7.135787,0.0517060,0.71073682,115.8599,08/11.0/2024,2000,g 15.0,2.0
# From MPEC 2022-K19
P/2017 U3 (PANSTARRS),e,15.9189,165.0755,296.2886,4.921046,0.0902855,0.10055522,175.6674,08/11.0/2024,2000,g 11.0,4.0
# From MPEC 2023-A50
C/2017 U7 (PANSTARRS),h,09/16.1502/2019,142.6350,276.3085,326.4586,1.002711,6.425260,2000,8.3,2.0
# From MPC114601
P/2017 W3 (Gibbs),e,18.1786,210.1203,327.7675,7.821930,0.0450540,0.50663403,106.2351,08/11.0/2024,2000,g 10.5,4.0
# From MPEC 2024-DC6
C/2017 Y2 (PANSTARRS),h,11/05.0866/2020,128.4493,66.0355,147.8779,1.001437,4.626756,2000,15.0,4.0
# From MPC111770
P/2017 Y3 (Leonard),e,27.6046,153.9530,67.4303,9.801933,0.0321171,0.86937677,76.3535,08/11.0/2024,2000,g 16.5,4.0
# From MPEC 2021-P47
C/2018 A3 (ATLAS),e,139.5743,194.3238,86.4333,344.2612,0.0001543,0.99045022,0.0000,01/09.2093/2019,2000,g  8.5,4.0
# From MPC109147
P/2018 A5 (PANSTARRS),e,23.6213,87.7832,359.5191,5.625275,0.0738735,0.52433641,185.3888,08/11.0/2024,2000,g 15.0,4.0
# From MPEC 2024-JU4
C/2018 A6 (Gibbs),e,77.1192,340.4229,264.3024,15.00715,0.0169534,0.79886138,31.5096,08/11.0/2024,2000,g  9.0,4.0
# From MPC114601
P/2018 C1 (Lemmon-Read),e,5.1048,270.2548,235.7391,5.650514,0.0733791,0.53239093,173.2141,08/11.0/2024,2000,g 13.5,4.0
# From MPEC 2022-M88
C/2018 DO4 (Lemmon),e,160.4476,251.3884,176.3605,25.45932,0.0076724,0.90501883,13.9720,08/11.0/2024,2000,g 11.0,4.0
# From MPEC 2021-R75
C/2018 F1 (Grauer),e,46.1291,177.2974,71.4974,222.4631,0.0002970,0.98653625,0.0000,12/10.4544/2018,2000,g 11.5,4.0
# From MPEC 2023-A50
C/2018 F4 (PANSTARRS),e,78.1007,26.5217,263.2050,2148,0.0000099,0.99839478,0.0000,12/01.5651/2019,2000,g 11.0,6.0
# From MPEC 2021-Y10
C/2018 F4-A,e,78.1009,26.5219,263.2018,2079,0.0000104,0.99834182,0.0000,12/01.5532/2019,2000,g 11.0,6.0
# From MPEC 2023-D41
C/2018 F4-B,e,78.1018,26.5214,263.1876,2196,0.0000096,0.99843059,0.0000,12/01.4900/2019,2000,g 11.0,6.0
# From MPC114602
P/2018 H2 (PANSTARRS),e,7.4210,67.9740,119.4008,4.400283,0.1067783,0.54035775,258.6061,08/11.0/2024,2000,g 16.6,2.0
# From MPEC 2021-R75
C/2018 KJ3 (Lemmon),e,136.6302,91.6892,217.5819,783.2066,0.0000450,0.99537807,0.0000,09/09.4882/2019,2000,g 12.2,2.0
# From MPC114602
P/2018 L1 (PANSTARRS),e,10.5786,268.5883,17.9843,3.656531,0.1409614,0.48126333,296.2998,08/11.0/2024,2000,g 15.0,4.0
# From MPEC 2021-P47
C/2018 L2 (ATLAS),e,67.1999,242.9830,56.3504,243.0705,0.0002601,0.99292323,0.0000,11/30.5728/2018,2000,g 10.0,4.0
# From MPC114603
P/2018 L4 (PANSTARRS),e,26.5958,145.2187,140.5475,4.947737,0.0895559,0.65826958,197.5685,08/11.0/2024,2000,g 17.5,4.0
# From MPC119996
P/2018 L5 (Leonard),e,2.2089,219.0574,93.9204,3.629080,0.1425638,0.36378486,326.3668,08/11.0/2024,2000,g 14.5,4.0
# From MPEC 2022-YN2
C/2018 N2 (ASASSN),h,11/11.9344/2019,77.5354,24.5035,25.2907,1.001773,3.132904,2000,6.0,4.0
# From MPC114603
P/2018 P4 (PANSTARRS),e,23.0922,353.1494,8.4959,6.692868,0.0569227,0.44968391,119.6813,08/11.0/2024,2000,g 12.0,4.0
# From MPEC 2021-P47
C/2018 P5 (PANSTARRS),e,7.2459,216.2534,132.0361,12.85179,0.0213924,0.64219054,42.6103,08/11.0/2024,2000,g 11.0,4.0
# From MPC118841
C/2018 R3 (Lemmon),e,69.7033,324.4622,112.7423,1688,0.0000142,0.99924017,0.0000,06/08.0969/2019,2000,g  9.5,4.0
# From MPC114603
C/2018 R5 (Lemmon),e,103.7153,171.2242,178.2617,22.97466,0.0089502,0.84163950,18.2527,08/11.0/2024,2000,g 11.5,4.0
# From MPEC 2022-QC6
C/2018 S2 (TESS),e,64.1149,85.1121,290.8955,14.37005,0.0180932,0.61837621,38.0799,08/11.0/2024,2000,g  7.5,4.0
# From MPEC 2024-JU4
C/2018 U1 (Lemmon),h,11/02.6287/2021,108.3255,75.5140,180.4127,1.000808,4.989440,2000,5.0,4.0
# From MPC114604
C/2018 V1 (Machholz-Fujikawa-Iwamoto),h,12/03.4201/2018,144.1696,129.4312,89.4515,1.000429,0.391784,2000,12.0,4.0
# From MPC115884
C/2018 V2 (ATLAS),e,159.1653,357.1542,319.2027,25.19250,0.0077947,0.90107741,16.2548,08/11.0/2024,2000,g 15.0,4.0
# From MPEC 2023-CD7
P/2018 VN2 (Leonard),e,18.2600,226.4411,138.9245,4.061562,0.1204105,0.47837935,271.5409,08/11.0/2024,2000,g 15.0,4.0
# From MPEC 2022-VC5
A/2018 V3,e,164.9306,308.7829,3.6049,128.3119,0.0006781,0.98960029,0.0000,09/10.1687/2019,2000,g 15.7,2.0
# From MPEC 2022-M21
C/2018 V4 (Africano),e,69.0411,78.2494,0.0308,211.0848,0.0003214,0.98484642,0.0000,03/02.2221/2019,2000,g 12.5,4.0
# From MPEC 2021-P47
P/2018 V5 (Trujillo-Sheppard),e,10.5832,171.3140,260.7721,8.973862,0.0366636,0.47595233,78.3258,08/11.0/2024,2000,g 12.5,4.0
# From MPEC 2021-P47
C/2018 W1 (Catalina),e,83.4220,233.6567,251.1880,21.72192,0.0097355,0.93764980,18.6623,08/11.0/2024,2000,g 15.5,2.0
# From MPEC 2021-P47
C/2018 W2 (Africano),h,09/05.4384/2019,116.5828,181.9019,158.1941,1.000861,1.465379,2000,9.5,4.0
# From MPEC 2023-M14
A/2018 W3,e,104.8393,251.6903,313.9178,715.8573,0.0000515,0.99401216,0.0000,04/13.1141/2021,2000,g 10.7,2.0
# From MPC119996
C/2018 X2 (Fitzsimmons),e,23.0917,340.7060,161.9565,139.5015,0.0005982,0.98485038,0.0000,07/09.1022/2019,2000,g 12.0,4.0
# From MPC114604
C/2018 X3 (PANSTARRS),e,43.4240,78.7989,359.8122,12.39793,0.0225777,0.78291787,46.2553,08/11.0/2024,2000,g 14.5,4.0
# From MPEC 2024-A43
C/2018 Y1 (Iwamoto),e,160.4543,147.3914,357.8628,126.6990,0.0006911,0.98982976,0.0000,02/04.2460/2019,2000,g 11.5,4.0
# From MPC114605
P/2018 Y2 (Africano),e,11.6915,297.1399,162.3171,7.454708,0.0484237,0.47991757,99.0947,08/11.0/2024,2000,g 11.5,4.0
# From MPC114605
P/2019 A1 (PANSTARRS),e,13.7643,312.2256,150.7462,5.113538,0.0852358,0.57003432,181.4536,08/11.0/2024,2000,g 16.0,4.0
# From MPEC 2021-P47
P/2019 A2 (ATLAS),e,14.8680,139.3885,323.8988,5.711075,0.0722150,0.38303478,150.8064,08/11.0/2024,2000,g 10.5,4.0
# From MPEC 2022-M21
P/2019 A3 (PANSTARRS),e,15.3720,31.3561,325.6770,3.145808,0.1766468,0.26657980,28.4813,08/11.0/2024,2000,g 16.0,4.0
# From MPEC 2022-L66
P/2019 A4 (PANSTARRS),e,13.3045,119.3590,343.1374,2.614548,0.2331358,0.08734273,122.5833,08/11.0/2024,2000,g 15.0,4.0
# From MPEC 2021-P47
C/2019 A5 (PANSTARRS),e,67.5481,146.5499,355.7811,21.48179,0.0098992,0.70621570,18.7340,08/11.0/2024,2000,g  9.5,4.0
# From MPC114605
P/2019 A6 (Lemmon-PANSTARRS),e,33.2875,280.1821,156.2200,5.356789,0.0794964,0.64039438,172.5874,08/11.0/2024,2000,g 16.0,4.0
# From MPC115884
P/2019 A8 (PANSTARRS),e,2.2117,114.3247,63.5442,4.345627,0.1087991,0.22609876,248.8284,08/11.0/2024,2000,g 16.0,4.0
# From MPC118842
C/2019 A9 (PANSTARRS),e,84.3653,278.4543,237.8961,39.20922,0.0040144,0.96356119,7.3967,08/11.0/2024,2000,g 15.0,4.0
# From MPEC 2022-L66
C/2019 B1 (Africano),e,123.4589,290.2679,174.7878,138.4462,0.0006050,0.98844710,0.0000,03/18.4658/2019,2000,g 16.0,4.0
# From MPC115885
P/2019 B2 (Groeller),e,16.9657,175.7051,0.7377,3.923783,0.1268080,0.35800521,242.3378,08/11.0/2024,2000,g 14.5,4.0
# From MPEC 2024-JU4
C/2019 B3 (PANSTARRS),e,66.5688,358.4147,263.9790,4812,0.0000030,0.99858104,0.0000,01/19.8423/2021,2000,g  5.5,4.0
# From MPEC 2021-P47
C/2019 C1 (ATLAS),e,36.0480,212.3871,319.0146,657.7956,0.0000584,0.99001221,0.0000,05/04.1381/2020,2000,g 10.0,4.0
# From MPEC 2022-O08
C/2019 D1 (Flewelling),e,33.9955,231.6466,70.7355,139.0369,0.0006012,0.98855883,0.0000,05/09.8045/2019,2000,g 13.0,4.0
# From MPEC 2024-PC5
C/2019 E3 (ATLAS),e,84.3039,347.2163,280.7100,5626,0.0000023,0.99816686,0.0000,11/15.4675/2023,2000,g  2.5,4.0
# From MPEC 2024-GJ3
C/2019 F1 (ATLAS-Africano),h,06/21.8139/2021,54.2358,38.6638,251.3345,1.001031,3.608566,2000,5.5,4.0
# From MPEC 2021-P47
C/2019 F2 (ATLAS),e,19.3133,175.3781,11.6299,16.57248,0.0146091,0.86464215,26.2908,08/11.0/2024,2000,g 12.0,4.0
# From MPEC 2024-E01
C/2019 G2 (PANSTARRS),e,159.2324,208.1935,82.6852,403.7668,0.0001215,0.99430297,0.0000,12/07.2060/2019,2000,g 15.0,4.0
# From MPEC 2022-VC5
A/2019 G3,e,156.8039,49.9130,161.8084,17.15248,0.0138744,0.83445145,28.8113,08/11.0/2024,2000,g 17.1,2.0
# From MPC114607
